{
  "links" : {
    "next" : "https://api.nasa.gov/neo/rest/v1/feed?start_date=2011-11-09&end_date=2011-11-09&detailed=true&api_key=t0TVs3DtDT2H8Oy2Zy8m2eVrNsAVKAexjcZXUckd",
    "prev" : "https://api.nasa.gov/neo/rest/v1/feed?start_date=2011-11-07&end_date=2011-11-07&detailed=true&api_key=t0TVs3DtDT2H8Oy2Zy8m2eVrNsAVKAexjcZXUckd",
    "self" : "https://api.nasa.gov/neo/rest/v1/feed?start_date=2011-11-08&end_date=2011-11-08&detailed=true&api_key=t0TVs3DtDT2H8Oy2Zy8m2eVrNsAVKAexjcZXUckd"
  },
  "element_count" : 9,
  "near_earth_objects" : {
    "2011-11-08" : [ {
      "links" : {
        "self" : "https://api.nasa.gov/neo/rest/v1/neo/3332535?api_key=t0TVs3DtDT2H8Oy2Zy8m2eVrNsAVKAexjcZXUckd"
      },
      "neo_reference_id" : "3332535",
      "name" : "(2006 JY26)",
      "nasa_jpl_url" : "http://ssd.jpl.nasa.gov/sbdb.cgi?sstr=3332535",
      "absolute_magnitude_h" : 28.4,
      "estimated_diameter" : {
        "kilometers" : {
          "estimated_diameter_min" : 0.0055533491,
          "estimated_diameter_max" : 0.0124176661
        },
        "meters" : {
          "estimated_diameter_min" : 5.5533491158,
          "estimated_diameter_max" : 12.4176661257
        },
        "miles" : {
          "estimated_diameter_min" : 0.0034506901,
          "estimated_diameter_max" : 0.0077159776
        },
        "feet" : {
          "estimated_diameter_min" : 18.2196499131,
          "estimated_diameter_max" : 40.740375732
        }
      },
      "is_potentially_hazardous_asteroid" : false,
      "close_approach_data" : [ {
        "close_approach_date" : "2011-11-08",
        "epoch_date_close_approach" : 1320739200000,
        "relative_velocity" : {
          "kilometers_per_second" : "6.5534544315",
          "kilometers_per_hour" : "23592.4359535739",
          "miles_per_hour" : "14659.4222179304"
        },
        "miss_distance" : {
          "astronomical" : "0.1199544704",
          "lunar" : "46.6622886658",
          "kilometers" : "17944932",
          "miles" : "11150464"
        },
        "orbiting_body" : "Earth"
      } ],
      "orbital_data" : {
        "orbit_id" : "9",
        "orbit_determination_date" : "2017-04-06 09:08:40",
        "orbit_uncertainty" : "3",
        "minimum_orbit_intersection" : ".000330436",
        "jupiter_tisserand_invariant" : "6.029",
        "epoch_osculation" : "2458000.5",
        "eccentricity" : ".08300439041661013",
        "semi_major_axis" : "1.010232593169178",
        "inclination" : "1.439038907726933",
        "ascending_node_longitude" : "43.46608958120395",
        "orbital_period" : "370.8775035408209",
        "perihelion_distance" : ".9263788525941795",
        "perihelion_argument" : "273.6429888422383",
        "aphelion_distance" : "1.094086333744178",
        "perihelion_time" : "2458024.134950738917",
        "mean_anomaly" : "337.058241104469",
        "mean_motion" : ".9706708995909114",
        "equinox" : "J2000"
      }
    }, {
      "links" : {
        "self" : "https://api.nasa.gov/neo/rest/v1/neo/3529625?api_key=t0TVs3DtDT2H8Oy2Zy8m2eVrNsAVKAexjcZXUckd"
      },
      "neo_reference_id" : "3529625",
      "name" : "(2010 LM68)",
      "nasa_jpl_url" : "http://ssd.jpl.nasa.gov/sbdb.cgi?sstr=3529625",
      "absolute_magnitude_h" : 20.8,
      "estimated_diameter" : {
        "kilometers" : {
          "estimated_diameter_min" : 0.1838886721,
          "estimated_diameter_max" : 0.411187571
        },
        "meters" : {
          "estimated_diameter_min" : 183.8886720703,
          "estimated_diameter_max" : 411.1875710413
        },
        "miles" : {
          "estimated_diameter_min" : 0.1142630881,
          "estimated_diameter_max" : 0.2555000322
        },
        "feet" : {
          "estimated_diameter_min" : 603.309310875,
          "estimated_diameter_max" : 1349.040630575
        }
      },
      "is_potentially_hazardous_asteroid" : false,
      "close_approach_data" : [ {
        "close_approach_date" : "2011-11-08",
        "epoch_date_close_approach" : 1320739200000,
        "relative_velocity" : {
          "kilometers_per_second" : "9.5513505739",
          "kilometers_per_hour" : "34384.8620661978",
          "miles_per_hour" : "21365.416098855"
        },
        "miss_distance" : {
          "astronomical" : "0.1860814948",
          "lunar" : "72.3857040405",
          "kilometers" : "27837396",
          "miles" : "17297356"
        },
        "orbiting_body" : "Earth"
      } ],
      "orbital_data" : {
        "orbit_id" : "29",
        "orbit_determination_date" : "2017-04-06 08:57:18",
        "orbit_uncertainty" : "2",
        "minimum_orbit_intersection" : ".120057",
        "jupiter_tisserand_invariant" : "5.756",
        "epoch_osculation" : "2458000.5",
        "eccentricity" : ".2612976219344793",
        "semi_major_axis" : "1.060932779274301",
        "inclination" : "12.27612069220059",
        "ascending_node_longitude" : "232.7413944874224",
        "orbital_period" : "399.1445729429328",
        "perihelion_distance" : ".7837135670175882",
        "perihelion_argument" : "137.5407797478256",
        "aphelion_distance" : "1.338151991531014",
        "perihelion_time" : "2457843.685607323766",
        "mean_anomaly" : "141.4354226269677",
        "mean_motion" : ".9019288358242831",
        "equinox" : "J2000"
      }
    }, {
      "links" : {
        "self" : "https://api.nasa.gov/neo/rest/v1/neo/3617715?api_key=t0TVs3DtDT2H8Oy2Zy8m2eVrNsAVKAexjcZXUckd"
      },
      "neo_reference_id" : "3617715",
      "name" : "(2012 VU76)",
      "nasa_jpl_url" : "http://ssd.jpl.nasa.gov/sbdb.cgi?sstr=3617715",
      "absolute_magnitude_h" : 25.7,
      "estimated_diameter" : {
        "kilometers" : {
          "estimated_diameter_min" : 0.0192555078,
          "estimated_diameter_max" : 0.0430566244
        },
        "meters" : {
          "estimated_diameter_min" : 19.2555078188,
          "estimated_diameter_max" : 43.0566244241
        },
        "miles" : {
          "estimated_diameter_min" : 0.0119648141,
          "estimated_diameter_max" : 0.0267541378
        },
        "feet" : {
          "estimated_diameter_min" : 63.1742402722,
          "estimated_diameter_max" : 141.2618956756
        }
      },
      "is_potentially_hazardous_asteroid" : false,
      "close_approach_data" : [ {
        "close_approach_date" : "2011-11-08",
        "epoch_date_close_approach" : 1320739200000,
        "relative_velocity" : {
          "kilometers_per_second" : "11.0021827854",
          "kilometers_per_hour" : "39607.8580273266",
          "miles_per_hour" : "24610.7826725908"
        },
        "miss_distance" : {
          "astronomical" : "0.232258714",
          "lunar" : "90.3486404419",
          "kilometers" : "34745408",
          "miles" : "21589796"
        },
        "orbiting_body" : "Earth"
      } ],
      "orbital_data" : {
        "orbit_id" : "11",
        "orbit_determination_date" : "2017-04-06 08:48:00",
        "orbit_uncertainty" : "2",
        "minimum_orbit_intersection" : ".00278641",
        "jupiter_tisserand_invariant" : "5.980",
        "epoch_osculation" : "2458000.5",
        "eccentricity" : ".1283954237826451",
        "semi_major_axis" : "1.0184711285248",
        "inclination" : "6.757397825301266",
        "ascending_node_longitude" : "52.36087709227366",
        "orbital_period" : "375.4235483532125",
        "perihelion_distance" : ".8877040963674694",
        "perihelion_argument" : "88.24645725359213",
        "aphelion_distance" : "1.14923816068213",
        "perihelion_time" : "2457822.875164464270",
        "mean_anomaly" : "170.3274636696493",
        "mean_motion" : ".9589169394917618",
        "equinox" : "J2000"
      }
    } ]
  }
}